STARLINK-5851
1 55947U 23037AK  26092.83335647  .00822118  00000+0  53337-2 0  9997
2 55947  70.0018 214.2177 0004581 282.0945 303.0655 15.73505668  5867
